COSMOS 2361             
1 25590U 98076A   25110.24095650  .00000083  00000+0  73682-4 0  9991
2 25590  82.9348 158.9684 0030984 200.7737 228.9394 13.73188791318959
COSMOS 2378             
1 26818U 01023A   25110.23766649  .00000068  00000+0  56009-4 0  9990
2 26818  82.9295 175.0509 0033971 143.7342 275.4067 13.74115594196823
COSMOS 2389             
1 27436U 02026A   25110.15361572  .00000076  00000+0  63331-4 0  9993
2 27436  82.9472 122.1106 0046399   2.1009  66.7858 13.75129476149034
COSMOS 2398             
1 27818U 03023A   25110.21070303  .00000104  00000+0  96474-4 0  9997
2 27818  82.9451  87.0117 0032537  51.4733  87.0270 13.72360082 95701
COSMOS 2407             
1 28380U 04028A   25110.33287253  .00000106  00000+0  92652-4 0  9991
2 28380  82.9644  27.9719 0039238 357.2156 123.7281 13.76285774 41903
COSMOS 2414             
1 28521U 05002A   25110.20946718  .00000111  00000+0  79435-4 0  9995
2 28521  82.9535   3.5561 0041546  95.2760 265.3146 13.87868683 25485
COSMOS 2429             
1 32052U 07038A   25110.17367005  .00000073  00000+0  60810-4 0  9996
2 32052  82.9810 157.6701 0037731 338.9395  21.0205 13.75121472883608
COSMOS 2454             
1 35635U 09039A   25109.20586536  .00000118  00000+0  82572-4 0  9992
2 35635  82.9587 348.7381 0020090  35.7371 113.4666 13.89893989798507
COSMOS 2463             
1 36519U 10017A   25110.17617766  .00000091  00000+0  83782-4 0  9994
2 36519  82.9640 200.5066 0035307 222.0501 202.0709 13.71623519750037
